NORAD_CAT_ID,OBJECT_NAME,OBJECT_TYPE,EPOCH,MEAN_MOTION,ECCENTRICITY,INCLINATION,RA_OF_ASC_NODE,ARG_OF_PERICENTER,MEAN_ANOMALY,BSTAR,MEAN_MOTION_DOT,MEAN_MOTION_DDOT,TLE_LINE0,TLE_LINE1,TLE_LINE2,SEMIMAJOR_AXIS,PERIOD,APOGEE,PERIGEE,DECAYED
55422.0,STARLINK-5006,PAYLOAD,2023-10-26 19:12:55,14.98327403,0.0002957,69.999,105.0078,273.5996,86.4825,9.9488e-05,1.094e-05,0.0,0 STARLINK-5006,1 55422U 23014AH  23299.80064616  .00001094  00000-0  99488-4 0  9990,2 55422  69.9990 105.0078 0002957 273.5996  86.4825 14.98327403 41073,6950.201,96.107,574.121,570.011,0.0
55422.0,STARLINK-5006,PAYLOAD,2023-10-26 20:49:03,14.98327411,0.0002959,69.999,104.8394,273.5904,86.4917,9.7801e-05,1.074e-05,0.0,0 STARLINK-5006,1 55422U 23014AH  23299.86740635  .00001074  00000-0  97801-4 0  9993,2 55422  69.9990 104.8394 0002959 273.5904  86.4917 14.98327411 42029,6950.201,96.107,574.122,570.009,0.0
55422.0,STARLINK-5006,PAYLOAD,2023-10-27 11:14:16,14.98334434,0.000299,69.999,103.3244,273.6939,86.3878,0.00012617,1.413e-05,0.0,0 STARLINK-5006,1 55422U 23014AH  23300.46824093  .00001413  00000-0  12617-3 0  9991,2 55422  69.9990 103.3244 0002990 273.6939  86.3878 14.98334434 42119,6950.179,96.107,574.122,569.966,0.0
55422.0,STARLINK-5006,PAYLOAD,2023-10-27 17:38:48,14.98336891,0.0003,69.9991,102.6512,273.8229,86.2587,0.00012543,1.404e-05,0.0,0 STARLINK-5006,1 55422U 23014AH  23300.73527845  .00001404  00000-0  12543-3 0  9994,2 55422  69.9991 102.6512 0003000 273.8229  86.2587 14.98336891 41212,6950.172,96.107,574.122,569.952,0.0
55422.0,STARLINK-5006,PAYLOAD,2023-10-27 20:51:04,14.98338178,0.0002988,69.9991,102.3145,273.8781,86.2037,0.0001343,1.51e-05,0.0,0 STARLINK-5006,1 55422U 23014AH  23300.86879676  .00001510  00000-0  13430-3 0  9994,2 55422  69.9991 102.3145 0002988 273.8781  86.2037 14.98338178 42174,6950.168,96.106,574.109,569.956,0.0
55422.0,STARLINK-5006,PAYLOAD,2023-10-28 14:28:32,14.98335529,0.0002937,69.9991,100.4628,274.0257,86.0566,3.4838e-05,3.23e-06,0.0,0 STARLINK-5006,1 55422U 23014AH  23301.60315823  .00000323  00000-0  34838-4 0  9993,2 55422  69.9991 100.4628 0002937 274.0257  86.0566 14.98335529 42288,6950.176,96.107,574.082,570.0,0.0
55422.0,STARLINK-5006,PAYLOAD,2023-10-28 20:53:04,14.98337535,0.0002985,69.9993,99.7895,273.7223,86.3595,7.6452e-05,8.19e-06,0.0,0 STARLINK-5006,1 55422U 23014AH  23301.87019451  .00000819  00000-0  76452-4 0  9998,2 55422  69.9993  99.7895 0002985 273.7223  86.3595 14.98337535 41382,6950.17,96.107,574.109,569.96,0.0
55422.0,STARLINK-5006,PAYLOAD,2023-10-29 12:54:25,14.98340823,0.0002849,69.9998,98.1063,274.8351,85.2483,-3.0923e-05,-4.62e-06,0.0,0 STARLINK-5006,1 55422U 23014AH  23302.53779149 -.00000462  00000-0 -30923-4 0  9998,2 55422  69.9998  98.1063 0002849 274.8351  85.2483 14.98340823 42424,6950.159,96.106,574.005,570.044,0.0
55422.0,STARLINK-5006,PAYLOAD,2023-10-29 19:18:56,14.98398162,0.0002586,69.9997,97.433,266.4124,93.6739,-0.00098233,-0.00011815,0.0,0 STARLINK-5006,1 55422U 23014AH  23302.80481591 -.00011815  00000-0 -98233-3 0  9990,2 55422  69.9997  97.4330 0002586 266.4124  93.6739 14.98398162 41521,6949.982,96.103,573.644,570.05,0.0
55422.0,STARLINK-5006,PAYLOAD,2023-10-29 20:55:04,14.98379172,0.0002727,69.9998,97.2647,271.7248,88.3598,-0.00064291,-7.765e-05,0.0,0 STARLINK-5006,1 55422U 23014AH  23302.87157825 -.00007765  00000-0 -64291-3 0  9993,2 55422  69.9998  97.2647 0002727 271.7248  88.3598 14.98379172 42473,6950.041,96.104,573.801,570.011,0.0
55422.0,STARLINK-5006,PAYLOAD,2023-10-30 11:20:18,14.98331658,0.0002629,70.0003,95.7497,272.7738,87.312,-4.8594e-05,-6.73e-06,0.0,0 STARLINK-5006,1 55422U 23014AH  23303.47243323 -.00000673  00000-0 -48594-4 0  9999,2 55422  70.0003  95.7497 0002629 272.7738  87.3120 14.98331658 41628,6950.188,96.107,573.88,570.226,0.0
55422.0,STARLINK-5006,PAYLOAD,2023-10-30 19:20:57,14.98376392,0.0002995,69.9999,94.9091,265.0544,95.0274,-0.00092115,-0.0001108,0.0,0 STARLINK-5006,1 55422U 23014AH  23303.80622328 -.00011080  00000-0 -92115-3 0  9993,2 55422  69.9999  94.9091 0002995 265.0544  95.0274 14.98376392 41671,6950.049,96.104,573.996,569.833,0.0
55422.0,STARLINK-5006,PAYLOAD,2023-10-30 20:57:06,14.9832768,0.0002647,70.0001,94.7402,265.9648,94.1208,-7.245e-05,-9.57e-06,0.0,0 STARLINK-5006,1 55422U 23014AH  23303.87299578 -.00000957  00000-0 -72450-4 0  9999,2 55422  70.0001  94.7402 0002647 265.9648  94.1208 14.98327680 42629,6950.2,96.107,573.905,570.225,0.0
55422.0,STARLINK-5006,PAYLOAD,2023-10-31 03:21:38,14.98332455,0.0002723,70.0012,94.0674,269.7768,90.3079,-0.00014782,-1.856e-05,0.0,0 STARLINK-5006,1 55422U 23014AH  23304.14003440 -.00001856  00000-0 -14782-3 0  9993,2 55422  70.0012  94.0674 0002723 269.7768  90.3079 14.98332455 41725,6950.185,96.107,573.943,570.158,0.0
55422.0,STARLINK-5006,PAYLOAD,2023-10-31 14:34:35,14.98332314,0.0002901,69.9996,92.889,268.8877,91.1949,-4.204e-05,-5.95e-06,0.0,0 STARLINK-5006,1 55422U 23014AH  23304.60735150 -.00000595  00000-0 -42040-4 0  9992,2 55422  69.9996  92.8890 0002901 268.8877  91.1949 14.98332314 42739,6950.186,96.107,574.067,570.034,0.0
55422.0,STARLINK-5006,PAYLOAD,2023-10-31 19:22:59,14.98332463,0.0002792,70.0002,92.384,266.2159,93.8681,-4.9761e-07,-9.9e-07,0.0,0 STARLINK-5006,1 55422U 23014AH  23304.80762995 -.00000099  00000-0 -49761-6 0  9999,2 55422  70.0002  92.3840 0002792 266.2159  93.8681 14.98332463 42763,6950.185,96.107,573.991,570.11,0.0
55422.0,STARLINK-5006,PAYLOAD,2023-11-01 03:23:40,14.98328424,0.00029,69.9997,91.5421,273.0199,87.0628,-0.00010848,-1.387e-05,0.0,0 STARLINK-5006,1 55422U 23014AH  23305.14143561 -.00001387  00000-0 -10848-3 0  9991,2 55422  69.9997  91.5421 0002900 273.0199  87.0628 14.98328424 41879,6950.198,96.107,574.078,570.047,0.0
55422.0,STARLINK-5006,PAYLOAD,2023-11-01 14:36:36,14.98316592,0.000309,70.0,90.3624,268.9312,91.1493,3.5521e-05,3.31e-06,0.0,0 STARLINK-5006,1 55422U 23014AH  23305.60876072  .00000331  00000-0  35521-4 0  9994,2 55422  70.0000  90.3624 0003090 268.9312  91.1493 14.98316592 42881,6950.234,96.108,574.247,569.952,0.0
55422.0,STARLINK-5006,PAYLOAD,2023-11-01 19:25:00,14.98322849,0.0003056,70.0,89.8576,267.4342,92.6467,-6.4414e-06,-1.7e-06,0.0,0 STARLINK-5006,1 55422U 23014AH  23305.80903884 -.00000170  00000-0 -64414-5 0  9995,2 55422  70.0000  89.8576 0003056 267.4342  92.6467 14.98322849 42912,6950.215,96.107,574.204,569.956,0.0
55422.0,STARLINK-5006,PAYLOAD,2023-11-02 03:25:40,14.98327918,0.0003022,70.0001,89.0164,269.4274,90.6538,4.8129e-05,4.81e-06,0.0,0 STARLINK-5006,1 55422U 23014AH  23306.14283545  .00000481  00000-0  48129-4 0  9995,2 55422  70.0001  89.0164 0003022 269.4274  90.6538 14.98327918 42028,6950.199,96.107,574.165,569.964,0.0
55422.0,STARLINK-5006,PAYLOAD,2023-11-02 14:38:36,14.98332659,0.0003229,69.9998,87.8381,268.9333,91.1456,0.00010858,1.203e-05,0.0,0 STARLINK-5006,1 55422U 23014AH  23306.61014986  .00001203  00000-0  10858-3 0  9998,2 55422  69.9998  87.8381 0003229 268.9333  91.1456 14.98332659 43031,6950.185,96.107,574.294,569.805,0.0
55422.0,STARLINK-5006,PAYLOAD,2023-11-02 19:27:00,14.98338226,0.0002996,69.9999,87.3331,266.4856,93.5961,0.00014011,1.579e-05,0.0,0 STARLINK-5006,1 55422U 23014AH  23306.81042491  .00001579  00000-0  14011-3 0  9993,2 55422  69.9999  87.3331 0002996 266.4856  93.5961 14.98338226 42127,6950.167,96.106,574.115,569.95,0.0
55422.0,STARLINK-5006,PAYLOAD,2023-11-03 11:28:22,14.983246,0.0003072,70.0008,85.6523,274.0079,86.0729,0.00010328,1.139e-05,0.0,0 STARLINK-5006,1 55422U 23014AH  23307.47803436  .00001139  00000-0  10328-3 0  9999,2 55422  70.0008  85.6523 0003072 274.0079  86.0729 14.98324600 42224,6950.21,96.107,574.21,569.939,0.0
55422.0,STARLINK-5006,PAYLOAD,2023-11-03 14:40:38,14.98329095,0.0002893,70.0008,85.3148,272.7448,87.338,3.8291e-05,3.64e-06,0.0,0 STARLINK-5006,1 55422U 23014AH  23307.61155363  .00000364  00000-0  38291-4 0  9993,2 55422  70.0008  85.3148 0002893 272.7448  87.3380 14.98329095 43185,6950.196,96.107,574.071,570.05,0.0
55422.0,STARLINK-5006,PAYLOAD,2023-11-03 17:52:54,14.98329295,0.0003005,70.0004,84.9774,265.6101,94.4714,9.2844e-05,1.015e-05,0.0,0 STARLINK-5006,1 55422U 23014AH  23307.74507148  .00001015  00000-0  92844-4 0  9997,2 55422  70.0004  84.9774 0003005 265.6101  94.4714 14.98329295 43209,6950.195,96.107,574.149,569.972,0.0
55422.0,STARLINK-5006,PAYLOAD,2023-11-04 13:06:30,14.9833375,0.0002999,70.0007,82.9576,268.9441,91.1375,-5.5992e-05,-7.61e-06,0.0,0 STARLINK-5006,1 55422U 23014AH  23308.54619163 -.00000761  00000-0 -55992-4 0  9999,2 55422  70.0007  82.9576 0002999 268.9441  91.1375 14.98333750 43325,6950.181,96.107,574.131,569.962,0.0
55422.0,STARLINK-5006,PAYLOAD,2023-11-04 17:54:54,14.98335942,0.0002921,70.0007,82.4526,267.6056,92.4769,-8.1314e-06,-1.9e-06,0.0,0 STARLINK-5006,1 55422U 23014AH  23308.74646831 -.00000190  00000-0 -81314-5 0  9997,2 55422  70.0007  82.4526 0002921 267.6056  92.4769 14.98335942 42413,6950.175,96.107,574.07,570.009,0.0
55422.0,STARLINK-5006,PAYLOAD,2023-11-05 14:44:39,14.98341159,0.000288,70.0008,80.2648,268.155,91.9279,2.2135e-05,1.71e-06,0.0,0 STARLINK-5006,1 55422U 23014AH  23309.61434075  .00000171  00000-0  22135-4 0  9991,2 55422  70.0008  80.2648 0002880 268.1550  91.9279 14.98341159 43489,6950.158,96.106,574.025,570.022,0.0
55422.0,STARLINK-5006,PAYLOAD,2023-11-05 17:56:54,14.98343547,0.00029,70.0007,79.9283,270.4805,89.6022,0.00013565,1.526e-05,0.0,0 STARLINK-5006,1 55422U 23014AH  23309.74785567  .00001526  00000-0  13565-3 0  9991,2 55422  70.0007  79.9283 0002900 270.4805  89.6022 14.98343547 42561,6950.151,96.106,574.032,570.0,0.0
55422.0,STARLINK-5006,PAYLOAD,2023-11-06 14:46:38,14.98343043,0.0002579,70.0017,77.741,266.3064,93.78,0.00014603,1.65e-05,0.0,0 STARLINK-5006,1 55422U 23014AH  23310.61572900  .00001650  00000-0  14603-3 0  9996,2 55422  70.0017  77.7410 0002579 266.3064  93.7800 14.98343043 43633,6950.153,96.106,573.81,570.225,0.0
